{"type": "FeatureCollection", "features": [ {"type": "Feature", "properties": {"norad_id": 44542, "name": "BEIDOU-3 M24 (C46)", "group": "gnss", "lat": -19.64075631436486, "lon": 173.94073975092024, "alt_km": 21513.708807360123, "timestamp": "2025-12-20T09:36:01.888660+00:00", "meta": {"OBJECT_NAME": "BEIDOU-3 M24 (C46)", "OBJECT_ID": "2019-061A", "EPOCH": "2025-12-19T21:35:13.024320", "MEAN_MOTION": 1.86229464, "ECCENTRICITY": 0.0009602, "INCLINATION": 54.4003, "RA_OF_ASC_NODE": 188.7744, "ARG_OF_PERICENTER": 25.6941, "MEAN_ANOMALY": 334.4131, "EPHEMERIS_TYPE": 0, "CLASSIFICATION_TYPE": "U", "NORAD_CAT_ID": 44542, "ELEMENT_SET_NO": 999, "REV_AT_EPOCH": 4245, "BSTAR": 0, "MEAN_MOTION_DOT": 1e-06, "MEAN_MOTION_DDOT": 0}, "tle": {"line1": "1 44542U 19061A   25353.89945630  .00000100  00000+0  00000+0 0  9997", "line2": "2 44542  54.4003 188.7744 0009602  25.6941 334.4131  1.86229464 42456"}}, "geometry": {"type": "Point", "coordinates": [173.94073975092024, -19.64075631436486]}}, {"type": "Feature", "properties": {"norad_id": 44543, "name": "BEIDOU-3 M23 (C45)", "group": "gnss", "lat": -49.063620403810205, "lon": 64.47385378737222, "alt_km": 21546.12786027862, "timestamp": "2025-12-20T09:36:01.888671+00:00", "meta": {"OBJECT_NAME": "BEIDOU-3 M23 (C45)", "OBJECT_ID": "2019-061B", "EPOCH": "2025-12-19T04:54:38.810304", "MEAN_MOTION": 1.86227724, "ECCENTRICITY": 0.0006055, "INCLINATION": 54.3992, "RA_OF_ASC_NODE": 188.7663, "ARG_OF_PERICENTER": 24.9207, "MEAN_ANOMALY": 142.055, "EPHEMERIS_TYPE": 0, "CLASSIFICATION_TYPE": "U", "NORAD_CAT_ID": 44543, "ELEMENT_SET_NO": 999, "REV_AT_EPOCH": 4244, "BSTAR": 0, "MEAN_MOTION_DOT": 1.04e-06, "MEAN_MOTION_DDOT": 0}, "tle": {"line1": "1 44543U 19061B   25353.20461586  .00000104  00000+0  00000+0 0  9990", "line2": "2 44543  54.3992 188.7663 0006055  24.9207 142.0550  1.86227724 42443"}}, "geometry": {"type": "Point", "coordinates": [64.47385378737222, -49.063620403810205]}}, {"type": "Feature", "properties": {"norad_id": 44624, "name": "EUTELSAT 5 WEST B (EGNOS/PRN 121)", "group": "gnss", "lat": -0.08714346190637517, "lon": -131.78438413691362, "alt_km": 35776.614456185845, "timestamp": "2025-12-20T09:36:01.888683+00:00", "meta": {"OBJECT_NAME": "EUTELSAT 5 WEST B (EGNOS/PRN 121)", "OBJECT_ID": "2019-067A", "EPOCH": "2025-12-20T02:56:07.768896", "MEAN_MOTION": 1.00271302, "ECCENTRICITY": 0.0002998, "INCLINATION": 0.0677, "RA_OF_ASC_NODE": 334.1279, "ARG_OF_PERICENTER": 294.9809, "MEAN_ANOMALY": 218.8907, "EPHEMERIS_TYPE": 0, "CLASSIFICATION_TYPE": "U", "NORAD_CAT_ID": 44624, "ELEMENT_SET_NO": 999, "REV_AT_EPOCH": 2264, "BSTAR": 0, "MEAN_MOTION_DOT": -1.8e-07, "MEAN_MOTION_DDOT": 0}, "tle": {"line1": "1 44624U 19067A   25354.12231214 -.00000018  00000+0  00000+0 0  9996", "line2": "2 44624   0.0677 334.1279 0002998 294.9809 218.8907  1.00271302 22645"}}, "geometry": {"type": "Point", "coordinates": [-131.78438413691362, -0.08714346190637517]}}, {"type": "Feature", "properties": {"norad_id": 44793, "name": "BEIDOU-3 M22 (C44)", "group": "gnss", "lat": 53.524670092469655, "lon": 24.25674260930598, "alt_km": 21512.93219998189, "timestamp": "2025-12-20T09:36:01.888694+00:00", "meta": {"OBJECT_NAME": "BEIDOU-3 M22 (C44)", "OBJECT_ID": "2019-078A", "EPOCH": "2025-12-19T04:51:35.344224", "MEAN_MOTION": 1.86232161, "ECCENTRICITY": 0.0006038, "INCLINATION": 54.1023, "RA_OF_ASC_NODE": 306.1592, "ARG_OF_PERICENTER": 24.3104, "MEAN_ANOMALY": 335.7082, "EPHEMERIS_TYPE": 0, "CLASSIFICATION_TYPE": "U", "NORAD_CAT_ID": 44793, "ELEMENT_SET_NO": 999, "REV_AT_EPOCH": 4129, "BSTAR": 0, "MEAN_MOTION_DOT": -7.7e-07, "MEAN_MOTION_DDOT": 0}, "tle": {"line1": "1 44793U 19078A   25353.20249241 -.00000077  00000+0  00000+0 0  9997", "line2": "2 44793  54.1023 306.1592 0006038  24.3104 335.7082  1.86232161 41295"}}, "geometry": {"type": "Point", "coordinates": [24.25674260930598, 53.524670092469655]}}, {"type": "Feature", "properties": {"norad_id": 44794, "name": "BEIDOU-3 M21 (C43)", "group": "gnss", "lat": -7.716325912029338, "lon": -59.57412277912123, "alt_km": 21518.946017383885, "timestamp": "2025-12-20T09:36:01.888705+00:00", "meta": {"OBJECT_NAME": "BEIDOU-3 M21 (C43)", "OBJECT_ID": "2019-078B", "EPOCH": "2025-12-16T15:43:55.727904", "MEAN_MOTION": 1.86227668, "ECCENTRICITY": 0.00041169, "INCLINATION": 54.078, "RA_OF_ASC_NODE": 306.2132, "ARG_OF_PERICENTER": 11.942, "MEAN_ANOMALY": 348.0544, "EPHEMERIS_TYPE": 0, "CLASSIFICATION_TYPE": "U", "NORAD_CAT_ID": 44794, "ELEMENT_SET_NO": 999, "REV_AT_EPOCH": 4125, "BSTAR": 0, "MEAN_MOTION_DOT": -9.5e-07, "MEAN_MOTION_DDOT": 0}, "tle": {"line1": "1 44794U 19078B   25350.65550611 -.00000095  00000+0  00000+0 0  9990", "line2": "2 44794  54.0780 306.2132 0004116  11.9420 348.0544  1.86227668 41256"}}, "geometry": {"type": "Point", "coordinates": [-59.57412277912123, -7.716325912029338]}}, {"type": "Feature", "properties": {"norad_id": 44850, "name": "COSMOS 2544 (759)", "group": "gnss", "lat": 50.51596155545228, "lon": -133.8882398657296, "alt_km": 19146.22838163202, "timestamp": "2025-12-20T09:36:01.888716+00:00", "meta": {"OBJECT_NAME": "COSMOS 2544 (759)", "OBJECT_ID": "2019-088A", "EPOCH": "2025-12-19T07:15:09.090720", "MEAN_MOTION": 2.13102067, "ECCENTRICITY": 0.0014082, "INCLINATION": 65.4636, "RA_OF_ASC_NODE": 79.7387, "ARG_OF_PERICENTER": 249.9981, "MEAN_ANOMALY": 109.8765, "EPHEMERIS_TYPE": 0, "CLASSIFICATION_TYPE": "U", "NORAD_CAT_ID": 44850, "ELEMENT_SET_NO": 999, "REV_AT_EPOCH": 4688, "BSTAR": 0, "MEAN_MOTION_DOT": -2.9e-07, "MEAN_MOTION_DDOT": 0}, "tle": {"line1": "1 44850U 19088A   25353.30218855 -.00000029  00000+0  00000+0 0  9997", "line2": "2 44850  65.4636  79.7387 0014082 249.9981 109.8765  2.13102067 46885"}}, "geometry": {"type": "Point", "coordinates": [-133.8882398657296, 50.51596155545228]}}, {"type": "Feature", "properties": {"norad_id": 44864, "name": "BEIDOU-3 M19 (C41)", "group": "gnss", "lat": -5.081057983803748, "lon": -107.89121542449021, "alt_km": 21536.720636739516, "timestamp": "2025-12-20T09:36:01.888731+00:00", "meta": {"OBJECT_NAME": "BEIDOU-3 M19 (C41)", "OBJECT_ID": "2019-090A", "EPOCH": "2025-12-20T02:47:03.427296", "MEAN_MOTION": 1.8623162, "ECCENTRICITY": 0.0018287, "INCLINATION": 56.399, "RA_OF_ASC_NODE": 68.717, "ARG_OF_PERICENTER": 285.0022, "MEAN_ANOMALY": 70.8825, "EPHEMERIS_TYPE": 0, "CLASSIFICATION_TYPE": "U", "NORAD_CAT_ID": 44864, "ELEMENT_SET_NO": 999, "REV_AT_EPOCH": 4089, "BSTAR": 0, "MEAN_MOTION_DOT": -4.6e-07, "MEAN_MOTION_DDOT": 0}, "tle": {"line1": "1 44864U 19090A   25354.11601189 -.00000046  00000+0  00000+0 0  9990", "line2": "2 44864  56.3990  68.7170 0018287 285.0022  70.8825  1.86231620 40894"}}, "geometry": {"type": "Point", "coordinates": [-107.89121542449021, -5.081057983803748]}}, {"type": "Feature", "properties": {"norad_id": 44865, "name": "BEIDOU-3 M20 (C42)", "group": "gnss", "lat": -55.98041297178257, "lon": -10.77945293465626, "alt_km": 21493.833615409774, "timestamp": "2025-12-20T09:36:01.888742+00:00", "meta": {"OBJECT_NAME": "BEIDOU-3 M20 (C42)", "OBJECT_ID": "2019-090B", "EPOCH": "2025-12-19T13:23:47.716224", "MEAN_MOTION": 1.86231656, "ECCENTRICITY": 0.0015458, "INCLINATION": 56.4001, "RA_OF_ASC_NODE": 68.7697, "ARG_OF_PERICENTER": 297.1258, "MEAN_ANOMALY": 134.3818, "EPHEMERIS_TYPE": 0, "CLASSIFICATION_TYPE": "U", "NORAD_CAT_ID": 44865, "ELEMENT_SET_NO": 999, "REV_AT_EPOCH": 4087, "BSTAR": 0, "MEAN_MOTION_DOT": -5.2e-07, "MEAN_MOTION_DDOT": 0}, "tle": {"line1": "1 44865U 19090B   25353.55819116 -.00000052  00000+0  00000+0 0  9996", "line2": "2 44865  56.4001  68.7697 0015458 297.1258 134.3818  1.86231656 40870"}}, "geometry": {"type": "Point", "coordinates": [-10.77945293465626, -55.98041297178257]}}, {"type": "Feature", "properties": {"norad_id": 45344, "name": "BEIDOU-3 G2 (C60)", "group": "gnss", "lat": -2.529574706569608, "lon": -46.72122676598384, "alt_km": 35778.94643066209, "timestamp": "2025-12-20T09:36:01.888753+00:00", "meta": {"OBJECT_NAME": "BEIDOU-3 G2 (C60)", "OBJECT_ID": "2020-017A", "EPOCH": "2025-12-19T13:38:45.370752", "MEAN_MOTION": 1.00273166, "ECCENTRICITY": 0.0002079, "INCLINATION": 2.5096, "RA_OF_ASC_NODE": 44.0024, "ARG_OF_PERICENTER": 233.0917, "MEAN_ANOMALY": 96.0359, "EPHEMERIS_TYPE": 0, "CLASSIFICATION_TYPE": "U", "NORAD_CAT_ID": 45344, "ELEMENT_SET_NO": 999, "REV_AT_EPOCH": 2145, "BSTAR": 0, "MEAN_MOTION_DOT": -1.18e-06, "MEAN_MOTION_DDOT": 0}, "tle": {"line1": "1 45344U 20017A   25353.56858068 -.00000118  00000+0  00000+0 0  9993", "line2": "2 45344   2.5096  44.0024 0002079 233.0917  96.0359  1.00273166 21451"}}, "geometry": {"type": "Point", "coordinates": [-46.72122676598384, -2.529574706569608]}}, {"type": "Feature", "properties": {"norad_id": 45358, "name": "COSMOS 2545 (760)", "group": "gnss", "lat": -25.000795488051683, "lon": -54.19090189804219, "alt_km": 19129.432662870608, "timestamp": "2025-12-20T09:36:01.888765+00:00", "meta": {"OBJECT_NAME": "COSMOS 2545 (760)", "OBJECT_ID": "2020-018A", "EPOCH": "2025-12-19T00:41:16.420128", "MEAN_MOTION": 2.13102611, "ECCENTRICITY": 0.0011548, "INCLINATION": 64.4657, "RA_OF_ASC_NODE": 318.7488, "ARG_OF_PERICENTER": 249.6698, "MEAN_ANOMALY": 110.1972, "EPHEMERIS_TYPE": 0, "CLASSIFICATION_TYPE": "U", "NORAD_CAT_ID": 45358, "ELEMENT_SET_NO": 999, "REV_AT_EPOCH": 4482, "BSTAR": 0, "MEAN_MOTION_DOT": -6.1e-07, "MEAN_MOTION_DDOT": 0}, "tle": {"line1": "1 45358U 20018A   25353.02866227 -.00000061  00000+0  00000+0 0  9993", "line2": "2 45358  64.4657 318.7488 0011548 249.6698 110.1972  2.13102611 44827"}}, "geometry": {"type": "Point", "coordinates": [-54.19090189804219, -25.000795488051683]}}]}